FM32
1 25982C 99065C   19033.89206650  .00000000  00000-0  00000-0 0  9997
2 25982  45.0170 236.5384 0005823 345.0396  15.0278 14.32008647  1036
